STARLINK-3132           
1 49457U 21104BB  23257.43459259 -.00004320  00000+0 -25365-3 0  9991
2 49457  53.2171 331.9600 0001395 104.3850 255.7297 15.08817786102888
STARLINK-3156           
1 49458U 21104BC  23257.44099980 -.00002851  00000+0 -16119-3 0  9998
2 49458  53.2176 331.9170 0001177  83.6437 276.4689 15.08826028102899
STARLINK-3141           
1 49459U 21104BD  23257.42995291 -.00007390  00000+0 -44704-3 0  9991
2 49459  53.2178 331.9762 0001524 108.2228 251.8930 15.08811962102883
STARLINK-3140           
1 49460U 21104BE  23257.42627261 -.00006949  00000+0 -41924-3 0  9992
2 49460  53.2171 331.9895 0001238  92.9845 267.1289 15.08813452102895
STARLINK-3219           
1 49724U 21115A   23257.02287906 -.00000739  00000+0 -29964-4 0  9993
2 49724  53.2164 263.9253 0001547  88.3292 271.7877 15.07199460 99614
STARLINK-3218           
1 49725U 21115B   23257.05368234 -.00001235  00000+0 -59493-4 0  9993
2 49725  53.2180 263.7643 0001674 105.3580 254.7597 15.08833003 99625
STARLINK-3237           
1 49726U 21115C   23257.07114526 -.00003812  00000+0 -22161-3 0  9993
2 49726  53.2156 273.5782 0001818 103.3770 256.7425 15.08829186 99484
STARLINK-3242           
1 49727U 21115D   23256.74362073 -.00001963  00000+0 -10527-3 0  9997
2 49727  53.2160 275.0469 0001764  87.6341 272.4853 15.08835898 98326
STARLINK-3240           
1 49728U 21115E   23256.74730625 -.00001963  00000+0 -10526-3 0  9999
2 49728  53.2154 275.0321 0001928  88.1479 271.9734 15.08830206 98327
STARLINK-3251           
1 49729U 21115F   23257.41435761 -.00001752  00000+0 -92032-4 0  9997
2 49729  53.2169 272.0490 0001463  91.5569 268.5591 15.08824459 99530
STARLINK-3249           
1 49730U 21115G   23257.37201586 -.00001423  00000+0 -74932-4 0  9994
2 49730  53.2159 272.4124 0001557  85.1838 274.9331 15.07194584 99521
STARLINK-3228           
1 49731U 21115H   23257.08587489 -.00001629  00000+0 -84291-4 0  9999
2 49731  53.2187 273.5135 0001957 100.5837 259.5375 15.08829051 99489
