[
    {
        "OBJECT_NAME": "STARLINK-3132",
        "OBJECT_ID": "2021-104BB",
        "EPOCH": "2023-09-14T10:25:48.799776",
        "MEAN_MOTION": 15.08817786,
        "ECCENTRICITY": 0.0001395,
        "INCLINATION": 53.2171,
        "RA_OF_ASC_NODE": 331.96,
        "ARG_OF_PERICENTER": 104.385,
        "MEAN_ANOMALY": 255.7297,
        "EPHEMERIS_TYPE": 0,
        "CLASSIFICATION_TYPE": "U",
        "NORAD_CAT_ID": 49457,
        "ELEMENT_SET_NO": 999,
        "REV_AT_EPOCH": 10288,
        "BSTAR": -0.00025365,
        "MEAN_MOTION_DOT": -0.0000432,
        "MEAN_MOTION_DDOT": 0
    },
    {
        "OBJECT_NAME": "STARLINK-3156",
        "OBJECT_ID": "2021-104BC",
        "EPOCH": "2023-09-14T10:35:02.382720",
        "MEAN_MOTION": 15.08826028,
        "ECCENTRICITY": 0.0001177,
        "INCLINATION": 53.2176,
        "RA_OF_ASC_NODE": 331.917,
        "ARG_OF_PERICENTER": 83.6437,
        "MEAN_ANOMALY": 276.4689,
        "EPHEMERIS_TYPE": 0,
        "CLASSIFICATION_TYPE": "U",
        "NORAD_CAT_ID": 49458,
        "ELEMENT_SET_NO": 999,
        "REV_AT_EPOCH": 10289,
        "BSTAR": -0.00016119,
        "MEAN_MOTION_DOT": -0.00002851,
        "MEAN_MOTION_DDOT": 0
    },
    {
        "OBJECT_NAME": "STARLINK-3141",
        "OBJECT_ID": "2021-104BD",
        "EPOCH": "2023-09-14T10:19:07.931424",
        "MEAN_MOTION": 15.08811962,
        "ECCENTRICITY": 0.0001524,
        "INCLINATION": 53.2178,
        "RA_OF_ASC_NODE": 331.9762,
        "ARG_OF_PERICENTER": 108.2228,
        "MEAN_ANOMALY": 251.893,
        "EPHEMERIS_TYPE": 0,
        "CLASSIFICATION_TYPE": "U",
        "NORAD_CAT_ID": 49459,
        "ELEMENT_SET_NO": 999,
        "REV_AT_EPOCH": 10288,
        "BSTAR": -0.00044704,
        "MEAN_MOTION_DOT": -0.0000739,
        "MEAN_MOTION_DDOT": 0
    },
    {
        "OBJECT_NAME": "STARLINK-3140",
        "OBJECT_ID": "2021-104BE",
        "EPOCH": "2023-09-14T10:13:49.953504",
        "MEAN_MOTION": 15.08813452,
        "ECCENTRICITY": 0.0001238,
        "INCLINATION": 53.2171,
        "RA_OF_ASC_NODE": 331.9895,
        "ARG_OF_PERICENTER": 92.9845,
        "MEAN_ANOMALY": 267.1289,
        "EPHEMERIS_TYPE": 0,
        "CLASSIFICATION_TYPE": "U",
        "NORAD_CAT_ID": 49460,
        "ELEMENT_SET_NO": 999,
        "REV_AT_EPOCH": 10289,
        "BSTAR": -0.00041924,
        "MEAN_MOTION_DOT": -0.00006949,
        "MEAN_MOTION_DDOT": 0
    },
    {
        "OBJECT_NAME": "STARLINK-3219",
        "OBJECT_ID": "2021-115A",
        "EPOCH": "2023-09-14T00:32:56.750784",
        "MEAN_MOTION": 15.0719946,
        "ECCENTRICITY": 0.0001547,
        "INCLINATION": 53.2164,
        "RA_OF_ASC_NODE": 263.9253,
        "ARG_OF_PERICENTER": 88.3292,
        "MEAN_ANOMALY": 271.7877,
        "EPHEMERIS_TYPE": 0,
        "CLASSIFICATION_TYPE": "U",
        "NORAD_CAT_ID": 49724,
        "ELEMENT_SET_NO": 999,
        "REV_AT_EPOCH": 9961,
        "BSTAR": -0.000029964,
        "MEAN_MOTION_DOT": -0.00000739,
        "MEAN_MOTION_DDOT": 0
    },
    {
        "OBJECT_NAME": "STARLINK-3218",
        "OBJECT_ID": "2021-115B",
        "EPOCH": "2023-09-14T01:17:18.154176",
        "MEAN_MOTION": 15.08833003,
        "ECCENTRICITY": 0.0001674,
        "INCLINATION": 53.218,
        "RA_OF_ASC_NODE": 263.7643,
        "ARG_OF_PERICENTER": 105.358,
        "MEAN_ANOMALY": 254.7597,
        "EPHEMERIS_TYPE": 0,
        "CLASSIFICATION_TYPE": "U",
        "NORAD_CAT_ID": 49725,
        "ELEMENT_SET_NO": 999,
        "REV_AT_EPOCH": 9962,
        "BSTAR": -0.000059493,
        "MEAN_MOTION_DOT": -0.00001235,
        "MEAN_MOTION_DDOT": 0
    },
    {
        "OBJECT_NAME": "STARLINK-3237",
        "OBJECT_ID": "2021-115C",
        "EPOCH": "2023-09-14T01:42:26.950464",
        "MEAN_MOTION": 15.08829186,
        "ECCENTRICITY": 0.0001818,
        "INCLINATION": 53.2156,
        "RA_OF_ASC_NODE": 273.5782,
        "ARG_OF_PERICENTER": 103.377,
        "MEAN_ANOMALY": 256.7425,
        "EPHEMERIS_TYPE": 0,
        "CLASSIFICATION_TYPE": "U",
        "NORAD_CAT_ID": 49726,
        "ELEMENT_SET_NO": 999,
        "REV_AT_EPOCH": 9948,
        "BSTAR": -0.00022161,
        "MEAN_MOTION_DOT": -0.00003812,
        "MEAN_MOTION_DDOT": 0
    },
    {
        "OBJECT_NAME": "STARLINK-3242",
        "OBJECT_ID": "2021-115D",
        "EPOCH": "2023-09-13T17:50:48.831072",
        "MEAN_MOTION": 15.08835898,
        "ECCENTRICITY": 0.0001764,
        "INCLINATION": 53.216,
        "RA_OF_ASC_NODE": 275.0469,
        "ARG_OF_PERICENTER": 87.6341,
        "MEAN_ANOMALY": 272.4853,
        "EPHEMERIS_TYPE": 0,
        "CLASSIFICATION_TYPE": "U",
        "NORAD_CAT_ID": 49727,
        "ELEMENT_SET_NO": 999,
        "REV_AT_EPOCH": 9832,
        "BSTAR": -0.00010527,
        "MEAN_MOTION_DOT": -0.00001963,
        "MEAN_MOTION_DDOT": 0
    },
    {
        "OBJECT_NAME": "STARLINK-3240",
        "OBJECT_ID": "2021-115E",
        "EPOCH": "2023-09-13T17:56:07.260000",
        "MEAN_MOTION": 15.08830206,
        "ECCENTRICITY": 0.0001928,
        "INCLINATION": 53.2154,
        "RA_OF_ASC_NODE": 275.0321,
        "ARG_OF_PERICENTER": 88.1479,
        "MEAN_ANOMALY": 271.9734,
        "EPHEMERIS_TYPE": 0,
        "CLASSIFICATION_TYPE": "U",
        "NORAD_CAT_ID": 49728,
        "ELEMENT_SET_NO": 999,
        "REV_AT_EPOCH": 9832,
        "BSTAR": -0.00010526,
        "MEAN_MOTION_DOT": -0.00001963,
        "MEAN_MOTION_DDOT": 0
    },
    {
        "OBJECT_NAME": "STARLINK-3251",
        "OBJECT_ID": "2021-115F",
        "EPOCH": "2023-09-14T09:56:40.497504",
        "MEAN_MOTION": 15.08824459,
        "ECCENTRICITY": 0.0001463,
        "INCLINATION": 53.2169,
        "RA_OF_ASC_NODE": 272.049,
        "ARG_OF_PERICENTER": 91.5569,
        "MEAN_ANOMALY": 268.5591,
        "EPHEMERIS_TYPE": 0,
        "CLASSIFICATION_TYPE": "U",
        "NORAD_CAT_ID": 49729,
        "ELEMENT_SET_NO": 999,
        "REV_AT_EPOCH": 9953,
        "BSTAR": -0.000092032,
        "MEAN_MOTION_DOT": -0.00001752,
        "MEAN_MOTION_DDOT": 0
    },
    {
        "OBJECT_NAME": "STARLINK-3249",
        "OBJECT_ID": "2021-115G",
        "EPOCH": "2023-09-14T08:55:42.170304",
        "MEAN_MOTION": 15.07194584,
        "ECCENTRICITY": 0.0001557,
        "INCLINATION": 53.2159,
        "RA_OF_ASC_NODE": 272.4124,
        "ARG_OF_PERICENTER": 85.1838,
        "MEAN_ANOMALY": 274.9331,
        "EPHEMERIS_TYPE": 0,
        "CLASSIFICATION_TYPE": "U",
        "NORAD_CAT_ID": 49730,
        "ELEMENT_SET_NO": 999,
        "REV_AT_EPOCH": 9952,
        "BSTAR": -0.000074932,
        "MEAN_MOTION_DOT": -0.00001423,
        "MEAN_MOTION_DDOT": 0
    },
    {
        "OBJECT_NAME": "STARLINK-3228",
        "OBJECT_ID": "2021-115H",
        "EPOCH": "2023-09-14T02:03:39.590496",
        "MEAN_MOTION": 15.08829051,
        "ECCENTRICITY": 0.0001957,
        "INCLINATION": 53.2187,
        "RA_OF_ASC_NODE": 273.5135,
        "ARG_OF_PERICENTER": 100.5837,
        "MEAN_ANOMALY": 259.5375,
        "EPHEMERIS_TYPE": 0,
        "CLASSIFICATION_TYPE": "U",
        "NORAD_CAT_ID": 49731,
        "ELEMENT_SET_NO": 999,
        "REV_AT_EPOCH": 9948,
        "BSTAR": -0.000084291,
        "MEAN_MOTION_DOT": -0.00001629,
        "MEAN_MOTION_DDOT": 0
    }
]